[{"OBJECT_NAME":"STARLINK-33900","OBJECT_ID":"2025-091AB","EPOCH":"2026-03-09T07:08:57.096384","MEAN_MOTION":15.27579737,"ECCENTRICITY":0.00014612,"INCLINATION":43.0018,"RA_OF_ASC_NODE":54.6126,"ARG_OF_PERICENTER":258.8876,"MEAN_ANOMALY":101.1811,"EPHEMERIS_TYPE":0,"CLASSIFICATION_TYPE":"U","NORAD_CAT_ID":63800,"ELEMENT_SET_NO":999,"REV_AT_EPOCH":4895,"BSTAR":0.0012640046,"MEAN_MOTION_DOT":0.00034684,"MEAN_MOTION_DDOT":0},{"OBJECT_NAME":"TRANSPORTER-1 OBJECT AA","OBJECT_ID":"2021-006AA","EPOCH":"2026-03-09T22:58:14.761920","MEAN_MOTION":15.29982294,"ECCENTRICITY":0.00086604,"INCLINATION":97.2381,"RA_OF_ASC_NODE":112.457,"ARG_OF_PERICENTER":185.709,"MEAN_ANOMALY":174.4054,"EPHEMERIS_TYPE":0,"CLASSIFICATION_TYPE":"U","NORAD_CAT_ID":47437,"ELEMENT_SET_NO":999,"REV_AT_EPOCH":28414,"BSTAR":0.0002197941,"MEAN_MOTION_DOT":6.312e-5,"MEAN_MOTION_DDOT":0}]
